[{"OBJECT_NAME":"STARLINK-5658","OBJECT_ID":"2023-013H","EPOCH":"2024-01-28T20:39:42.837408","MEAN_MOTION":15.02540149,"ECCENTRICITY":0.0001313,"INCLINATION":43.002,"RA_OF_ASC_NODE":169.0709,"ARG_OF_PERICENTER":271.9265,"MEAN_ANOMALY":88.1427,"EPHEMERIS_TYPE":0,"CLASSIFICATION_TYPE":"U","NORAD_CAT_ID":55338,"ELEMENT_SET_NO":999,"REV_AT_EPOCH":5575,"BSTAR":0.00011145,"MEAN_MOTION_DOT":1.302e-5,"MEAN_MOTION_DDOT":0},{"OBJECT_NAME":"STARLINK-5671","OBJECT_ID":"2023-013J","EPOCH":"2024-01-28T20:31:43.179168","MEAN_MOTION":15.02545408,"ECCENTRICITY":0.0001274,"INCLINATION":43.0017,"RA_OF_ASC_NODE":169.0266,"ARG_OF_PERICENTER":273.1607,"MEAN_ANOMALY":86.9089,"EPHEMERIS_TYPE":0,"CLASSIFICATION_TYPE":"U","NORAD_CAT_ID":55339,"ELEMENT_SET_NO":999,"REV_AT_EPOCH":5575,"BSTAR":0.00027066,"MEAN_MOTION_DOT":3.455e-5,"MEAN_MOTION_DDOT":0},{"OBJECT_NAME":"STARLINK-5675","OBJECT_ID":"2023-013K","EPOCH":"2024-01-28T20:28:31.530144","MEAN_MOTION":15.0254294,"ECCENTRICITY":0.0001355,"INCLINATION":43.0014,"RA_OF_ASC_NODE":169.0109,"ARG_OF_PERICENTER":270.4489,"MEAN_ANOMALY":89.6198,"EPHEMERIS_TYPE":0,"CLASSIFICATION_TYPE":"U","NORAD_CAT_ID":55340,"ELEMENT_SET_NO":999,"REV_AT_EPOCH":5575,"BSTAR":0.00028402,"MEAN_MOTION_DOT":3.636e-5,"MEAN_MOTION_DDOT":0},{"OBJECT_NAME":"STARLINK-5670","OBJECT_ID":"2023-013L","EPOCH":"2024-01-29T09:20:44.567808","MEAN_MOTION":15.02542338,"ECCENTRICITY":0.0001368,"INCLINATION":43.001,"RA_OF_ASC_NODE":166.1566,"ARG_OF_PERICENTER":272.3434,"MEAN_ANOMALY":87.7251,"EPHEMERIS_TYPE":0,"CLASSIFICATION_TYPE":"U","NORAD_CAT_ID":55341,"ELEMENT_SET_NO":999,"REV_AT_EPOCH":5626,"BSTAR":0.00029337,"MEAN_MOTION_DOT":3.762e-5,"MEAN_MOTION_DDOT":0},{"OBJECT_NAME":"STARLINK-5657","OBJECT_ID":"2023-013M","EPOCH":"2024-01-28T20:26:55.843872","MEAN_MOTION":15.02538603,"ECCENTRICITY":0.0001322,"INCLINATION":43.0019,"RA_OF_ASC_NODE":169.0015,"ARG_OF_PERICENTER":273.2418,"MEAN_ANOMALY":86.8273,"EPHEMERIS_TYPE":0,"CLASSIFICATION_TYPE":"U","NORAD_CAT_ID":55342,"ELEMENT_SET_NO":999,"REV_AT_EPOCH":5618,"BSTAR":5.3466e-5,"MEAN_MOTION_DOT":5.19e-6,"MEAN_MOTION_DDOT":0},{"OBJECT_NAME":"STARLINK-5661","OBJECT_ID":"2023-013N","EPOCH":"2024-01-28T17:07:28.998048","MEAN_MOTION":15.02535902,"ECCENTRICITY":0.0001156,"INCLINATION":43.0025,"RA_OF_ASC_NODE":169.6813,"ARG_OF_PERICENTER":263.6617,"MEAN_ANOMALY":96.4094,"EPHEMERIS_TYPE":0,"CLASSIFICATION_TYPE":"U","NORAD_CAT_ID":55343,"ELEMENT_SET_NO":999,"REV_AT_EPOCH":5573,"BSTAR":5.7321e-5,"MEAN_MOTION_DOT":5.71e-6,"MEAN_MOTION_DDOT":0},{"OBJECT_NAME":"STARLINK-5662","OBJECT_ID":"2023-013P","EPOCH":"2024-01-28T17:10:40.778400","MEAN_MOTION":15.02537919,"ECCENTRICITY":0.0001129,"INCLINATION":43.0019,"RA_OF_ASC_NODE":169.6993,"ARG_OF_PERICENTER":244.2512,"MEAN_ANOMALY":115.8214,"EPHEMERIS_TYPE":0,"CLASSIFICATION_TYPE":"U","NORAD_CAT_ID":55344,"ELEMENT_SET_NO":999,"REV_AT_EPOCH":5573,"BSTAR":-5.5961e-5,"MEAN_MOTION_DOT":-9.59e-6,"MEAN_MOTION_DDOT":0},{"OBJECT_NAME":"STARLINK-5653","OBJECT_ID":"2023-013Q","EPOCH":"2024-01-28T17:07:50.965248","MEAN_MOTION":15.02537352,"ECCENTRICITY":0.0001151,"INCLINATION":43.0029,"RA_OF_ASC_NODE":156.6582,"ARG_OF_PERICENTER":261.8715,"MEAN_ANOMALY":98.1996,"EPHEMERIS_TYPE":0,"CLASSIFICATION_TYPE":"U","NORAD_CAT_ID":55345,"ELEMENT_SET_NO":999,"REV_AT_EPOCH":5588,"BSTAR":-2.7124e-5,"MEAN_MOTION_DOT":-5.7e-6,"MEAN_MOTION_DDOT":0},{"OBJECT_NAME":"STARLINK-5631","OBJECT_ID":"2023-013R","EPOCH":"2024-01-28T18:38:24.759744","MEAN_MOTION":15.02542126,"ECCENTRICITY":0.0001084,"INCLINATION":43.003,"RA_OF_ASC_NODE":169.2963,"ARG_OF_PERICENTER":256.5364,"MEAN_ANOMALY":103.5358,"EPHEMERIS_TYPE":0,"CLASSIFICATION_TYPE":"U","NORAD_CAT_ID":55346,"ELEMENT_SET_NO":999,"REV_AT_EPOCH":5574,"BSTAR":-2.4958e-5,"MEAN_MOTION_DOT":-5.41e-6,"MEAN_MOTION_DDOT":0},{"OBJECT_NAME":"STARLINK-5663","OBJECT_ID":"2023-013S","EPOCH":"2024-01-28T19:58:09.639264","MEAN_MOTION":15.02546327,"ECCENTRICITY":0.0001397,"INCLINATION":43.0015,"RA_OF_ASC_NODE":168.8512,"ARG_OF_PERICENTER":273.057,"MEAN_ANOMALY":87.0112,"EPHEMERIS_TYPE":0,"CLASSIFICATION_TYPE":"U","NORAD_CAT_ID":55347,"ELEMENT_SET_NO":999,"REV_AT_EPOCH":5618,"BSTAR":0.00055808,"MEAN_MOTION_DOT":7.345e-5,"MEAN_MOTION_DDOT":0},{"OBJECT_NAME":"STARLINK-5609","OBJECT_ID":"2023-013T","EPOCH":"2024-01-28T20:10:56.255232","MEAN_MOTION":15.025446,"ECCENTRICITY":0.0001295,"INCLINATION":43.0022,"RA_OF_ASC_NODE":168.9177,"ARG_OF_PERICENTER":271.8394,"MEAN_ANOMALY":88.23,"EPHEMERIS_TYPE":0,"CLASSIFICATION_TYPE":"U","NORAD_CAT_ID":55348,"ELEMENT_SET_NO":999,"REV_AT_EPOCH":5618,"BSTAR":0.00012157,"MEAN_MOTION_DOT":1.439e-5,"MEAN_MOTION_DDOT":0},{"OBJECT_NAME":"STARLINK-5666","OBJECT_ID":"2023-013U","EPOCH":"2024-01-28T20:06:09.922176","MEAN_MOTION":15.02543506,"ECCENTRICITY":0.0001411,"INCLINATION":43.0025,"RA_OF_ASC_NODE":168.8926,"ARG_OF_PERICENTER":268.7494,"MEAN_ANOMALY":91.3187,"EPHEMERIS_TYPE":0,"CLASSIFICATION_TYPE":"U","NORAD_CAT_ID":55349,"ELEMENT_SET_NO":999,"REV_AT_EPOCH":5575,"BSTAR":0.00012383,"MEAN_MOTION_DOT":1.47e-5,"MEAN_MOTION_DDOT":0},{"OBJECT_NAME":"STARLINK-5668","OBJECT_ID":"2023-013V","EPOCH":"2024-01-29T10:22:54.429888","MEAN_MOTION":15.02536822,"ECCENTRICITY":0.0001193,"INCLINATION":43.0017,"RA_OF_ASC_NODE":165.6173,"ARG_OF_PERICENTER":263.6125,"MEAN_ANOMALY":96.4581,"EPHEMERIS_TYPE":0,"CLASSIFICATION_TYPE":"U","NORAD_CAT_ID":55350,"ELEMENT_SET_NO":999,"REV_AT_EPOCH":5627,"BSTAR":6.4574e-5,"MEAN_MOTION_DOT":6.69e-6,"MEAN_MOTION_DDOT":0},{"OBJECT_NAME":"STARLINK-5659","OBJECT_ID":"2023-013W","EPOCH":"2024-01-29T10:06:55.437408","MEAN_MOTION":15.02536981,"ECCENTRICITY":9.6e-5,"INCLINATION":43.0018,"RA_OF_ASC_NODE":165.5327,"ARG_OF_PERICENTER":273.9052,"MEAN_ANOMALY":86.1681,"EPHEMERIS_TYPE":0,"CLASSIFICATION_TYPE":"U","NORAD_CAT_ID":55351,"ELEMENT_SET_NO":999,"REV_AT_EPOCH":5627,"BSTAR":9.3177e-5,"MEAN_MOTION_DOT":1.055e-5,"MEAN_MOTION_DDOT":0},{"OBJECT_NAME":"STARLINK-5547","OBJECT_ID":"2023-013X","EPOCH":"2024-01-29T10:14:55.402368","MEAN_MOTION":15.02493718,"ECCENTRICITY":0.0001023,"INCLINATION":43.0019,"RA_OF_ASC_NODE":165.5756,"ARG_OF_PERICENTER":275.7143,"MEAN_ANOMALY":84.3583,"EPHEMERIS_TYPE":0,"CLASSIFICATION_TYPE":"U","NORAD_CAT_ID":55352,"ELEMENT_SET_NO":999,"REV_AT_EPOCH":5627,"BSTAR":0.00076406,"MEAN_MOTION_DOT":0.00010121,"MEAN_MOTION_DDOT":0},{"OBJECT_NAME":"STARLINK-5608","OBJECT_ID":"2023-013Y","EPOCH":"2024-01-28T21:00:19.504800","MEAN_MOTION":15.02537358,"ECCENTRICITY":0.0001319,"INCLINATION":43.0023,"RA_OF_ASC_NODE":168.3147,"ARG_OF_PERICENTER":271.8914,"MEAN_ANOMALY":88.1777,"EPHEMERIS_TYPE":0,"CLASSIFICATION_TYPE":"U","NORAD_CAT_ID":55353,"ELEMENT_SET_NO":999,"REV_AT_EPOCH":5576,"BSTAR":-5.8716e-5,"MEAN_MOTION_DOT":-9.97e-6,"MEAN_MOTION_DDOT":0},{"OBJECT_NAME":"STARLINK-5649","OBJECT_ID":"2023-013Z","EPOCH":"2024-01-29T10:11:43.034496","MEAN_MOTION":15.02530951,"ECCENTRICITY":0.0001504,"INCLINATION":43.0024,"RA_OF_ASC_NODE":165.5592,"ARG_OF_PERICENTER":266.7399,"MEAN_ANOMALY":93.3272,"EPHEMERIS_TYPE":0,"CLASSIFICATION_TYPE":"U","NORAD_CAT_ID":55354,"ELEMENT_SET_NO":999,"REV_AT_EPOCH":5627,"BSTAR":-8.4508e-5,"MEAN_MOTION_DOT":-1.345e-5,"MEAN_MOTION_DDOT":0}]
