55338,STARLINK-5658,2023,95.84,290.0,+,43.0,Active,1,LEO,USA,USA,Commercial,Communications,Falcon,1 55338U 23013H   24028.86091247  .00001302  00000+0  11145-3 0  9996,2 55338  43.0020 169.0709 0001313 271.9265  88.1427 15.02540149 55750,15.02540149,0.0001313,LEO
55339,STARLINK-5671,2023,95.84,290.0,+,43.0,Active,1,LEO,USA,USA,Commercial,Communications,Falcon,1 55339U 23013J   24028.85536087  .00003455  00000+0  27066-3 0  9992,2 55339  43.0017 169.0266 0001274 273.1607  86.9089 15.02545408 55758,15.02545408,0.0001274,LEO
55340,STARLINK-5675,2023,95.84,290.0,+,43.0,Active,1,LEO,USA,USA,Commercial,Communications,Falcon,1 55340U 23013K   24028.85314271  .00003636  00000+0  28402-3 0  9999,2 55340  43.0014 169.0109 0001355 270.4489  89.6198 15.02542940 55750,15.0254294,0.0001355,LEO
55341,STARLINK-5670,2023,95.84,290.0,+,43.0,Active,1,LEO,USA,USA,Commercial,Communications,Falcon,1 55341U 23013L   24029.38940472  .00003762  00000+0  29337-3 0  9995,2 55341  43.0010 166.1566 0001368 272.3434  87.7251 15.02542338 56264,15.02542338,0.0001368,LEO
55342,STARLINK-5657,2023,95.84,290.0,+,43.0,Active,1,LEO,USA,USA,Commercial,Communications,Falcon,1 55342U 23013M   24028.85203523  .00000519  00000+0  53466-4 0  9994,2 55342  43.0019 169.0015 0001322 273.2418  86.8273 15.02538603 56182,15.02538603,0.0001322,LEO
55343,STARLINK-5661,2023,95.84,290.0,+,43.0,Active,1,LEO,USA,USA,Commercial,Communications,Falcon,1 55343U 23013N   24028.71353007  .00000571  00000+0  57321-4 0  9995,2 55343  43.0025 169.6813 0001156 263.6617  96.4094 15.02535902 55738,15.02535902,0.0001156,LEO
55344,STARLINK-5662,2023,95.84,290.0,+,43.0,Active,1,LEO,USA,USA,Commercial,Communications,Falcon,1 55344U 23013P   24028.71574975 -.00000959  00000+0 -55961-4 0  9995,2 55344  43.0019 169.6993 0001129 244.2512 115.8214 15.02537919 55730,15.02537919,0.0001129,LEO
55345,STARLINK-5653,2023,95.84,290.0,+,43.0,Active,1,LEO,USA,USA,Commercial,Communications,Falcon,1 55345U 23013Q   24028.71378432 -.00000570  00000+0 -27124-4 0  9995,2 55345  43.0029 156.6582 0001151 261.8715  98.1996 15.02537352 55884,15.02537352,0.0001151,LEO
55346,STARLINK-5631,2023,95.84,290.0,+,43.0,Active,1,LEO,USA,USA,Commercial,Communications,Falcon,1 55346U 23013R   24028.77667546 -.00000541  00000+0 -24958-4 0  9999,2 55346  43.0030 169.2963 0001084 256.5364 103.5358 15.02542126 55749,15.02542126,0.0001084,LEO
55347,STARLINK-5663,2023,95.84,290.0,+,43.0,Active,1,LEO,USA,USA,Commercial,Communications,Falcon,1 55347U 23013S   24028.83205601  .00007345  00000+0  55808-3 0  9991,2 55347  43.0015 168.8512 0001397 273.0570  87.0112 15.02546327 56188,15.02546327,0.0001397,LEO
55348,STARLINK-5609,2023,95.84,290.0,+,43.0,Active,1,LEO,USA,USA,Commercial,Communications,Falcon,1 55348U 23013T   24028.84092888  .00001439  00000+0  12157-3 0  9992,2 55348  43.0022 168.9177 0001295 271.8394  88.2300 15.02544600 56186,15.025446,0.0001295,LEO
55349,STARLINK-5666,2023,95.84,290.0,+,43.0,Active,1,LEO,USA,USA,Commercial,Communications,Falcon,1 55349U 23013U   24028.83761484  .00001470  00000+0  12383-3 0  9993,2 55349  43.0025 168.8926 0001411 268.7494  91.3187 15.02543506 55751,15.02543506,0.0001411,LEO
55350,STARLINK-5668,2023,95.84,290.0,+,43.0,Active,1,LEO,USA,USA,Commercial,Communications,Falcon,1 55350U 23013V   24029.43257442  .00000669  00000+0  64574-4 0  9995,2 55350  43.0017 165.6173 0001193 263.6125  96.4581 15.02536822 56270,15.02536822,0.0001193,LEO
55351,STARLINK-5659,2023,95.84,290.0,+,43.0,Active,1,LEO,USA,USA,Commercial,Communications,Falcon,1 55351U 23013W   24029.42147497  .00001055  00000+0  93177-4 0  9994,2 55351  43.0018 165.5327 0000960 273.9052  86.1681 15.02536981 56279,15.02536981,9.6e-05,LEO
55352,STARLINK-5547,2023,95.84,290.0,+,43.0,Active,1,LEO,USA,USA,Commercial,Communications,Falcon,1 55352U 23013X   24029.42703012  .00010121  00000+0  76406-3 0  9995,2 55352  43.0019 165.5756 0001023 275.7143  84.3583 15.02493718 56270,15.02493718,0.0001023,LEO
55353,STARLINK-5608,2023,95.84,290.0,+,43.0,Active,1,LEO,USA,USA,Commercial,Communications,Falcon,1 55353U 23013Y   24028.87522575 -.00000997  00000+0 -58716-4 0  9994,2 55353  43.0023 168.3147 0001319 271.8914  88.1777 15.02537358 55761,15.02537358,0.0001319,LEO
55354,STARLINK-5649,2023,95.84,290.0,+,43.0,Active,1,LEO,USA,USA,Commercial,Communications,Falcon,1 55354U 23013Z   24029.42480364 -.00001345  00000+0 -84508-4 0  9992,2 55354  43.0024 165.5592 0001504 266.7399  93.3272 15.02530951 56279,15.02530951,0.0001504,LEO
